GLOBALSTAR M001         
1 25162U 98008A   25338.59240233  .00000022  00000+0  90842-3 0  9999
2 25162  52.0008 197.2414 0000292 248.6997 134.6317 12.38223323264825
GLOBALSTAR M004         
1 25163U 98008B   25339.21599294 -.00000025  00000+0  43578-3 0  9992
2 25163  52.0004 252.3796 0002987 325.3910 190.4205 12.63409951283300
GLOBALSTAR M002         
1 25164U 98008C   25339.24707632 -.00000045  00000+0  61245-3 0  9996
2 25164  51.9978 171.2989 0002688  92.8439 267.2689 11.61514341203940
GLOBALSTAR M003         
1 25165U 98008D   25339.23042543 -.00000203  00000+0 -12137-2 0  9991
2 25165  51.9930  54.7839 0007561 276.2614 117.7071 12.12044330253960
GLOBALSTAR M014         
1 25306U 98023A   25339.29710182 -.00000101  00000+0 -44548-3 0  9991
2 25306  51.9842  90.7965 0000188  21.8478 352.3181 11.65483930211120
GLOBALSTAR M006         
1 25307U 98023B   25338.67298730 -.00000069  00000+0  13109-3 0  9994
2 25307  51.9901 151.2214 0004218  68.4264  13.2973 11.58178706236588
GLOBALSTAR M015         
1 25308U 98023C   25339.21139535  .00000002  00000+0  17124-2 0  9999
2 25308  51.9824 256.1925 0013228  22.2474 130.1031 11.48862691213737
GLOBALSTAR M008         
1 25309U 98023D   25339.25349924 -.00000090  00000+0  49246-4 0  9999
2 25309  51.9984  62.0840 0003116 167.2791 227.4810 12.36076474259001
